ONEWEB-0607             
1 54671U 22166AF  25293.24428450  .00000077  00000+0  15616-3 0  9995
2 54671  87.9167 291.8421 0001732  87.9283 272.2050 13.21770195139849
ONEWEB-0608             
1 54672U 22166AG  25293.25081843  .00000088  00000+0  18234-3 0  9999
2 54672  87.9172 291.8246 0001593  75.5865 284.5446 13.21745489139859
ONEWEB-0610             
1 54673U 22166AH  25293.23119432  .00000009  00000+0 -10434-4 0  9993
2 54673  87.9166 291.8657 0001453  72.5624 287.5669 13.21818844139759
ONEWEB-0611             
1 54674U 22166AJ  25293.22467447 -.00000023  00000+0 -87051-4 0  9991
2 54674  87.9167 291.8624 0001995  94.9485 265.1877 13.21845667139744
ONEWEB-0612             
1 54675U 22166AK  25293.23774453  .00000070  00000+0  13734-3 0  9997
2 54675  87.9168 291.8384 0001714  86.2839 273.8491 13.21794693139734
ONEWEB-0615             
1 54676U 22166AL  25293.21813652  .00000019  00000+0  15351-4 0  9992
2 54676  87.9170 291.8688 0001880  89.6099 270.5251 13.21869023139743
ONEWEB-0655             
1 54677U 22166AM  25293.26882863  .00000081  00000+0  16500-3 0  9993
2 54677  87.9167 291.8643 0001594  92.9271 267.2045 13.21681762139748
ONEWEB-0659             
1 54678U 22166AN  25293.20970097  .00000044  00000+0  75504-4 0  9994
2 54678  87.9165 291.8760 0001976  89.1634 270.9726 13.21757343139827
